     2.10           G: GLONASS NAV DATA                     RINEX VERSION / TYPE
teqc  2015Jun23                         20210522 02:25:48UTCPGM / RUN BY / DATE
Linux 2.4.21-27.ELsmp|Opteron|gcc -static|Linux x86_64|=+   COMMENT
  2021     4    28    1.350417733192D-08                    CORR TO SYSTEM TIME
                                                            END OF HEADER
 3 21  4 29  2 15  0.0 3.503169864416D-05 0.000000000000D+00 7.200000000000D+03
    1.988165039062D+03-7.159957885742D-01 0.000000000000D+00 0.000000000000D+00
    2.088394482422D+04-1.857193946838D+00-2.793967723846D-09 5.000000000000D+00
   -1.442659765625D+04-2.782275199890D+00 1.862645149231D-09 0.000000000000D+00
 4 21  4 29  2 15  0.0 8.450075984001D-05 1.818989403546D-12 7.200000000000D+03
    1.138161572266D+04 2.764616012573D-01 0.000000000000D+00 0.000000000000D+00
    2.273840527344D+04 1.747245788574D-01-2.793967723846D-09 6.000000000000D+00
    2.029728027344D+03-3.564866065979D+00-0.000000000000D+00 0.000000000000D+00
17 21  4 29  2 15  0.0 4.197182133794D-04 2.728484105319D-12 7.200000000000D+03
   -1.132054785156D+04-4.260845184326D-01-2.793967723846D-09 0.000000000000D+00
    2.160479296875D+04 9.628162384033D-01-9.313225746155D-10 4.000000000000D+00
   -7.517168457031D+03 3.403484344482D+00 2.793967723846D-09 0.000000000000D+00
18 21  4 29  2 15  0.0 7.472466677427D-05 9.094947017729D-13 7.200000000000D+03
    3.630742187500D+02-1.565115928650D+00 9.313225746155D-10 0.000000000000D+00
    1.514083251953D+04 2.343017578125D+00-1.862645149231D-09-3.000000000000D+00
   -2.049590136719D+04 1.707349777222D+00 1.862645149231D-09 0.000000000000D+00
24 21  4 29  2 15  0.0 4.065874963999D-05 1.818989403546D-12 7.200000000000D+03
   -1.747739062500D+04 9.372749328613D-01-5.587935447693D-09 0.000000000000D+00
    1.577456005859D+04-9.795818328857D-01 0.000000000000D+00 2.000000000000D+00
    9.839330078125D+03 3.238861083984D+00 9.313225746155D-10 0.000000000000D+00
 3 21  4 29  2 45  0.0 3.503169864416D-05-0.000000000000D+00 9.000000000000D+03
    1.799677734375D+02-1.299690246582D+00 0.000000000000D+00 0.000000000000D+00
    1.715415527344D+04-2.240307807922D+00-1.862645149231D-09 5.000000000000D+00
   -1.880867236328D+04-2.054864883423D+00 2.793967723846D-09 0.000000000000D+00
 4 21  4 29  2 45  0.0 8.450355380774D-05 1.818989403546D-12 9.000000000000D+03
    1.150827587891D+04-1.708145141602D-01-0.000000000000D+00 0.000000000000D+00
    2.233007910156D+04-6.066465377808D-01-2.793967723846D-09 6.000000000000D+00
   -4.382580078125D+03-3.513620376587D+00 0.000000000000D+00 0.000000000000D+00
17 21  4 29  2 45  0.0 4.197247326374D-04 2.728484105319D-12 9.000000000000D+03
   -1.156533447266D+04 1.241970062256D-01-4.656612873077D-09 0.000000000000D+00
    2.272428125000D+04 2.506628036499D-01-0.000000000000D+00 4.000000000000D+00
   -1.179790039062D+03 3.592394828796D+00 1.862645149231D-09 0.000000000000D+00
18 21  4 29  2 45  0.0 7.472652941942D-05 0.000000000000D+00 9.000000000000D+03
   -1.899693359375D+03-9.473142623901D-01-9.313225746155D-10 0.000000000000D+00
    1.917735888672D+04 2.092028617859D+00-1.862645149231D-09-3.000000000000D+00
   -1.666785839844D+04 2.518424987793D+00 2.793967723846D-09 0.000000000000D+00
24 21  4 29  2 45  0.0 4.066154360771D-05 1.818989403546D-12 9.000000000000D+03
   -1.557256689453D+04 1.134644508362D+00-5.587935447693D-09 0.000000000000D+00
    1.331321728516D+04-1.750052452087D+00 9.313225746155D-10 2.000000000000D+00
    1.521405273438D+04 2.694348335266D+00 9.313225746155D-10 0.000000000000D+00
 5 21  4 29  2 45  0.0 7.081031799316D-05 9.094947017729D-13 9.030000000000D+03
    1.629272265625D+04 1.031447410583D+00-0.000000000000D+00 0.000000000000D+00
    1.511818261719D+04 1.374640464783D+00-2.793967723846D-09 1.000000000000D+00
    1.251400292969D+04-3.009200096130D+00-1.862645149231D-09 0.000000000000D+00
14 21  4 29  2 45  0.0 6.366241723299D-05 0.000000000000D+00 1.011000000000D+04
   -1.044302490234D+04-2.838608741760D+00-4.656612873077D-09 0.000000000000D+00
    1.047260009766D+04 1.805934906006D-01 9.313225746155D-10-7.000000000000D+00
    2.078724902344D+04-1.518918991089D+00-0.000000000000D+00 0.000000000000D+00
 5 21  4 29  3 15  0.0 7.081124931574D-05 9.094947017729D-13 1.080000000000D+04
    1.790108105469D+04 7.123651504517D-01-9.313225746155D-10 0.000000000000D+00
    1.688925341797D+04 5.971822738647D-01-2.793967723846D-09 1.000000000000D+00
    6.683481933594D+03-3.427113533020D+00-9.313225746155D-10 0.000000000000D+00
 3 21  4 29  3 15  0.0 3.503169864416D-05-0.000000000000D+00 1.080000000000D+04
   -2.680955078125D+03-1.867053031921D+00 0.000000000000D+00 0.000000000000D+00
    1.299304541016D+04-2.334656715393D+00-9.313225746155D-10 5.000000000000D+00
   -2.172796875000D+04-1.167641639709D+00 2.793967723846D-09 0.000000000000D+00
 4 21  4 29  3 15  0.0 8.450634777546D-05 1.818989403546D-12 1.080000000000D+04
    1.066218750000D+04-7.911167144775D-01-0.000000000000D+00 0.000000000000D+00
    2.066125439453D+04-1.211108207703D+00-2.793967723846D-09 6.000000000000D+00
   -1.045560986328D+04-3.190263748169D+00 9.313225746155D-10 0.000000000000D+00
14 21  4 29  3 15  0.0 6.366334855556D-05 0.000000000000D+00 1.080000000000D+04
   -1.511590966797D+04-2.313138008118D+00-4.656612873077D-09 0.000000000000D+00
    1.110978906250D+04 5.007181167603D-01 1.862645149231D-09-7.000000000000D+00
    1.728522802734D+04-2.347017288208D+00 0.000000000000D+00 0.000000000000D+00
17 21  4 29  3 15  0.0 4.197303205729D-04 2.728484105319D-12 1.080000000000D+04
   -1.100208837891D+04 4.614057540894D-01-4.656612873077D-09 0.000000000000D+00
    2.242739648438D+04-5.936517715454D-01 9.313225746155D-10 4.000000000000D+00
    5.248664062500D+03 3.504039764404D+00 1.862645149231D-09 0.000000000000D+00
18 21  4 29  3 15  0.0 7.472746074200D-05 0.000000000000D+00 1.080000000000D+04
   -3.075205078125D+03-3.756837844849D-01-2.793967723846D-09 0.000000000000D+00
    2.250027587891D+04 1.556177139282D+00-9.313225746155D-10-3.000000000000D+00
   -1.154684179688D+04 3.134558677673D+00 2.793967723846D-09 0.000000000000D+00
24 21  4 29  3 15  0.0 4.066433757544D-05 1.818989403546D-12 1.080000000000D+04
   -1.354996630859D+04 1.071375846863D+00-4.656612873077D-09 0.000000000000D+00
    9.527618164062D+03-2.432127952576D+00 1.862645149231D-09 2.000000000000D+00
    1.941394140625D+04 1.941967964172D+00 0.000000000000D+00 0.000000000000D+00
 5 21  4 29  3 45  0.0 7.081311196089D-05 9.094947017729D-13 1.260000000000D+04
    1.871325000000D+04 1.547431945801D-01-9.313225746155D-10 0.000000000000D+00
    1.731581787109D+04-1.012172698975D-01-2.793967723846D-09 1.000000000000D+00
    3.358222656250D+02-3.580005645752D+00-0.000000000000D+00 0.000000000000D+00
 3 21  4 29  3 45  0.0 3.503169864416D-05 0.000000000000D+00 1.260000000000D+04
   -6.465796386719D+03-2.308948516846D+00 0.000000000000D+00 0.000000000000D+00
    8.915891601562D+03-2.152990341187D+00-0.000000000000D+00 5.000000000000D+00
   -2.295779687500D+04-1.900138854980D-01 3.725290298462D-09 0.000000000000D+00
 4 21  4 29  3 45  0.0 8.450914174318D-05 1.818989403546D-12 1.260000000000D+04
    8.612345703125D+03-1.490658760071D+00-0.000000000000D+00 0.000000000000D+00
    1.811925390625D+04-1.568395614624D+00-1.862645149231D-09 6.000000000000D+00
   -1.571866748047D+04-2.619457244873D+00 1.862645149231D-09 0.000000000000D+00
14 21  4 29  3 45  0.0 6.366427987814D-05 0.000000000000D+00 1.260000000000D+04
   -1.865021533203D+04-1.588478088379D+00-4.656612873077D-09 0.000000000000D+00
    1.215711328125D+04 6.252441406250D-01 3.725290298462D-09-7.000000000000D+00
    1.244693847656D+04-2.993995666504D+00 1.862645149231D-09 0.000000000000D+00
17 21  4 29  3 45  0.0 4.197359085083D-04 2.728484105319D-12 1.260000000000D+04
   -1.005727685547D+04 5.451688766479D-01-4.656612873077D-09 0.000000000000D+00
    2.057524755859D+04-1.457582473755D+00 1.862645149231D-09 4.000000000000D+00
    1.127209619141D+04 3.145288467407D+00 9.313225746155D-10 0.000000000000D+00
18 21  4 29  3 45  0.0 7.472932338715D-05 0.000000000000D+00 1.260000000000D+04
   -3.341829589844D+03 4.748630523682D-02-3.725290298462D-09 0.000000000000D+00
    2.464299462891D+04 7.939186096191D-01 0.000000000000D+00-3.000000000000D+00
   -5.529696777344D+03 3.507582664490D+00 1.862645149231D-09 0.000000000000D+00
19 21  4 29  3 45  0.0-1.416569575667D-04-9.094947017729D-13 1.311000000000D+04
    4.346084472656D+03-5.234317779541D-01-0.000000000000D+00 0.000000000000D+00
    1.647634814453D+04 2.554824829102D+00-1.862645149231D-09 3.000000000000D+00
   -1.898383398438D+04 2.097923278809D+00 2.793967723846D-09 0.000000000000D+00
15 21  4 29  3 45  0.0 1.041051000357D-04 0.000000000000D+00 1.368000000000D+04
   -2.211593750000D+03-2.921845436096D+00-3.725290298462D-09 0.000000000000D+00
    1.191866845703D+04 9.440870285034D-01 1.862645149231D-09 0.000000000000D+00
    2.246015527344D+04-7.892265319824D-01-0.000000000000D+00 0.000000000000D+00
 5 21  4 29  4 15  0.0 7.081404328346D-05 9.094947017729D-13 1.440000000000D+04
    1.835490380859D+04-5.738897323608D-01-9.313225746155D-10 0.000000000000D+00
    1.663089306641D+04-6.240224838257D-01-2.793967723846D-09 1.000000000000D+00
   -6.037799804688D+03-3.455727577209D+00 0.000000000000D+00 0.000000000000D+00
15 21  4 29  4 15  0.0 1.041060313582D-04-0.000000000000D+00 1.440000000000D+04
   -7.104010742188D+03-2.474371910095D+00-3.725290298462D-09 0.000000000000D+00
    1.389908740234D+04 1.225610733032D+00 2.793967723846D-09 0.000000000000D+00
    2.019117529297D+04-1.715557098389D+00 0.000000000000D+00 0.000000000000D+00
 4 21  4 29  4 15  0.0 8.451193571091D-05 9.094947017729D-13 1.440000000000D+04
    5.315304199219D+03-2.157740592957D+00-0.000000000000D+00 0.000000000000D+00
    1.518118994141D+04-1.650321006775D+00-1.862645149231D-09 6.000000000000D+00
   -1.976328564453D+04-1.845240592957D+00 2.793967723846D-09 0.000000000000D+00
